[{"OBJECT_NAME":"METEOR-M2 3","OBJECT_ID":"2023-091A","EPOCH":"2026-03-09T22:59:41.369280","MEAN_MOTION":14.24037691,"ECCENTRICITY":0.000511,"INCLINATION":98.6213,"RA_OF_ASC_NODE":125.9119,"ARG_OF_PERICENTER":98.6128,"MEAN_ANOMALY":261.563,"EPHEMERIS_TYPE":0,"CLASSIFICATION_TYPE":"U","NORAD_CAT_ID":57166,"ELEMENT_SET_NO":999,"REV_AT_EPOCH":14039,"BSTAR":2.3891208e-5,"MEAN_MOTION_DOT":1.2e-7,"MEAN_MOTION_DDOT":0},{"OBJECT_NAME":"COSMOS 1275 DEB","OBJECT_ID":"1981-053HH","EPOCH":"2026-03-09T16:38:11.579712","MEAN_MOTION":14.15336947,"ECCENTRICITY":0.00427119,"INCLINATION":82.936,"RA_OF_ASC_NODE":312.0479,"ARG_OF_PERICENTER":44.652,"MEAN_ANOMALY":9.9421,"EPHEMERIS_TYPE":0,"CLASSIFICATION_TYPE":"U","NORAD_CAT_ID":13813,"ELEMENT_SET_NO":999,"REV_AT_EPOCH":19978,"BSTAR":0.0012046304,"MEAN_MOTION_DOT":2.382e-5,"MEAN_MOTION_DDOT":0}]
